{
  "type": "FeatureCollection",
  "features": [
    {
      "type": "Feature",
      "properties": {
        "norad_id": 40115,
        "name": "WORLDVIEW-3 (WV-3)",
        "group": "resource",
        "lat": 3.130407844096389,
        "lon": -125.06927065453927,
        "alt_km": 611.8481220447193,
        "timestamp": "2025-12-08T03:50:06.662011+00:00",
        "meta_object_name": "WORLDVIEW-3 (WV-3)",
        "meta_object_id": "2014-048A",
        "meta_epoch": "2025-12-07T07:38:33.324000",
        "meta_mean_motion": 14.85491335,
        "meta_eccentricity": 0.00043716,
        "meta_inclination": 97.8619,
        "meta_ra_of_asc_node": 53.667,
        "meta_arg_of_pericenter": 203.2503,
        "meta_mean_anomaly": 156.8515,
        "meta_ephemeris_type": 0,
        "meta_classification_type": "U",
        "meta_norad_cat_id": 40115,
        "meta_element_set_no": 999,
        "meta_rev_at_epoch": 61343,
        "meta_bstar": 0.00024395475,
        "meta_mean_motion_dot": 2.052e-05,
        "meta_mean_motion_ddot": 0,
        "tle_line1": "1 40115U 14048A   25341.31844125  .00002052  00000+0  24395-3 0  9995",
        "tle_line2": "2 40115  97.8619  53.6670 0004371 203.2503 156.8515 14.85491335613431"
      },
      "geometry": {
        "type": "Point",
        "coordinates": [
          -125.06927065453927,
          3.130407844096389
        ]
      }
    },
    {
      "type": "Feature",
      "properties": {
        "norad_id": 40118,
        "name": "GAOFEN-2",
        "group": "resource",
        "lat": 72.71080943260925,
        "lon": 14.314633210859087,
        "alt_km": 616.765983253058,
        "timestamp": "2025-12-08T03:50:06.662021+00:00",
        "meta_object_name": "GAOFEN-2",
        "meta_object_id": "2014-049A",
        "meta_epoch": "2025-12-07T06:24:49.990464",
        "meta_mean_motion": 14.80593902,
        "meta_eccentricity": 0.00083898,
        "meta_inclination": 98.0393,
        "meta_ra_of_asc_node": 40.4261,
        "meta_arg_of_pericenter": 128.7326,
        "meta_mean_anomaly": 231.4637,
        "meta_ephemeris_type": 0,
        "meta_classification_type": "U",
        "meta_norad_cat_id": 40118,
        "meta_element_set_no": 999,
        "meta_rev_at_epoch": 61083,
        "meta_bstar": 0.00020913384,
        "meta_mean_motion_dot": 1.552e-05,
        "meta_mean_motion_ddot": 0,
        "tle_line1": "1 40118U 14049A   25341.26724526  .00001552  00000+0  20913-3 0  9991",
        "tle_line2": "2 40118  98.0393  40.4261 0008389 128.7326 231.4637 14.80593902610837"
      },
      "geometry": {
        "type": "Point",
        "coordinates": [
          14.314633210859087,
          72.71080943260925
        ]
      }
    },
    {
      "type": "Feature",
      "properties": {
        "norad_id": 40143,
        "name": "YAOGAN-21",
        "group": "resource",
        "lat": 49.4402215392497,
        "lon": 17.206932597963295,
        "alt_km": 483.68665829250403,
        "timestamp": "2025-12-08T03:50:06.662047+00:00",
        "meta_object_name": "YAOGAN-21",
        "meta_object_id": "2014-053A",
        "meta_epoch": "2025-12-07T07:07:32.923776",
        "meta_mean_motion": 15.23580161,
        "meta_eccentricity": 0.00100623,
        "meta_inclination": 97.1758,
        "meta_ra_of_asc_node": 24.8464,
        "meta_arg_of_pericenter": 58.4978,
        "meta_mean_anomaly": 301.7242,
        "meta_ephemeris_type": 0,
        "meta_classification_type": "U",
        "meta_norad_cat_id": 40143,
        "meta_element_set_no": 999,
        "meta_rev_at_epoch": 62571,
        "meta_bstar": 0.00040735651,
        "meta_mean_motion_dot": 9.695e-05,
        "meta_mean_motion_ddot": 0,
        "tle_line1": "1 40143U 14053A   25341.29690884  .00009695  00000+0  40736-3 0  9997",
        "tle_line2": "2 40143  97.1758  24.8464 0010062  58.4978 301.7242 15.23580161625711"
      },
      "geometry": {
        "type": "Point",
        "coordinates": [
          17.206932597963295,
          49.4402215392497
        ]
      }
    },
    {
      "type": "Feature",
      "properties": {
        "norad_id": 40275,
        "name": "YAOGAN-22",
        "group": "resource",
        "lat": 67.8106593115014,
        "lon": 97.77901834847455,
        "alt_km": 1199.5861880683187,
        "timestamp": "2025-12-08T03:50:06.662059+00:00",
        "meta_object_name": "YAOGAN-22",
        "meta_object_id": "2014-063A",
        "meta_epoch": "2025-12-07T03:44:59.667360",
        "meta_mean_motion": 13.15522422,
        "meta_eccentricity": 0.00059138,
        "meta_inclination": 100.7419,
        "meta_ra_of_asc_node": 124.4969,
        "meta_arg_of_pericenter": 261.7419,
        "meta_mean_anomaly": 98.3022,
        "meta_ephemeris_type": 0,
        "meta_classification_type": "U",
        "meta_norad_cat_id": 40275,
        "meta_element_set_no": 999,
        "meta_rev_at_epoch": 53456,
        "meta_bstar": 3.5732529e-05,
        "meta_mean_motion_dot": -3.3e-07,
        "meta_mean_motion_ddot": 0,
        "tle_line1": "1 40275U 14063A   25341.15624615 -.00000033  00000+0  35733-4 0  9998",
        "tle_line2": "2 40275 100.7419 124.4969 0005913 261.7419  98.3022 13.15522422534569"
      },
      "geometry": {
        "type": "Point",
        "coordinates": [
          97.77901834847455,
          67.8106593115014
        ]
      }
    },
    {
      "type": "Feature",
      "properties": {
        "norad_id": 40298,
        "name": "ASNARO",
        "group": "resource",
        "lat": 12.503392513268293,
        "lon": -120.13705646096531,
        "alt_km": 506.02376269393426,
        "timestamp": "2025-12-08T03:50:06.662069+00:00",
        "meta_object_name": "ASNARO",
        "meta_object_id": "2014-070A",
        "meta_epoch": "2025-12-07T06:33:11.651328",
        "meta_mean_motion": 15.19324815,
        "meta_eccentricity": 0.00053608,
        "meta_inclination": 97.3659,
        "meta_ra_of_asc_node": 57.3542,
        "meta_arg_of_pericenter": 137.1465,
        "meta_mean_anomaly": 223.0188,
        "meta_ephemeris_type": 0,
        "meta_classification_type": "U",
        "meta_norad_cat_id": 40298,
        "meta_element_set_no": 999,
        "meta_rev_at_epoch": 61486,
        "meta_bstar": 0.00075991586,
        "meta_mean_motion_dot": 0.00016012,
        "meta_mean_motion_ddot": 0,
        "tle_line1": "1 40298U 14070A   25341.27305152  .00016012  00000+0  75992-3 0  9999",
        "tle_line2": "2 40298  97.3659  57.3542 0005360 137.1465 223.0188 15.19324815614869"
      },
      "geometry": {
        "type": "Point",
        "coordinates": [
          -120.13705646096531,
          12.503392513268293
        ]
      }
    },
    {
      "type": "Feature",
      "properties": {
        "norad_id": 40310,
        "name": "YAOGAN-24",
        "group": "resource",
        "lat": 47.921968282989916,
        "lon": -57.670049505345446,
        "alt_km": 627.6815363206069,
        "timestamp": "2025-12-08T03:50:06.662079+00:00",
        "meta_object_name": "YAOGAN-24",
        "meta_object_id": "2014-072A",
        "meta_epoch": "2025-12-07T07:43:13.284192",
        "meta_mean_motion": 14.76159871,
        "meta_eccentricity": 0.00144847,
        "meta_inclination": 98.1224,
        "meta_ra_of_asc_node": 112.3864,
        "meta_arg_of_pericenter": 154.7933,
        "meta_mean_anomaly": 205.3986,
        "meta_ephemeris_type": 0,
        "meta_classification_type": "U",
        "meta_norad_cat_id": 40310,
        "meta_element_set_no": 999,
        "meta_rev_at_epoch": 59541,
        "meta_bstar": 0.00028422582,
        "meta_mean_motion_dot": 1.915e-05,
        "meta_mean_motion_ddot": 0,
        "tle_line1": "1 40310U 14072A   25341.32168153  .00001915  00000+0  28423-3 0  9993",
        "tle_line2": "2 40310  98.1224 112.3864 0014484 154.7933 205.3986 14.76159871595410"
      },
      "geometry": {
        "type": "Point",
        "coordinates": [
          -57.670049505345446,
          47.921968282989916
        ]
      }
    },
    {
      "type": "Feature",
      "properties": {
        "norad_id": 40336,
        "name": "CBERS 4",
        "group": "resource",
        "lat": -1.3297674970715534,
        "lon": -139.8616352855615,
        "alt_km": 775.984408267339,
        "timestamp": "2025-12-08T03:50:06.662089+00:00",
        "meta_object_name": "CBERS 4",
        "meta_object_id": "2014-079A",
        "meta_epoch": "2025-12-07T06:55:10.838496",
        "meta_mean_motion": 14.35514708,
        "meta_eccentricity": 0.00015222,
        "meta_inclination": 98.3318,
        "meta_ra_of_asc_node": 39.4916,
        "meta_arg_of_pericenter": 120.5397,
        "meta_mean_anomaly": 239.594,
        "meta_ephemeris_type": 0,
        "meta_classification_type": "U",
        "meta_norad_cat_id": 40336,
        "meta_element_set_no": 999,
        "meta_rev_at_epoch": 57642,
        "meta_bstar": 0.00012084077,
        "meta_mean_motion_dot": 3.06e-06,
        "meta_mean_motion_ddot": 0,
        "tle_line1": "1 40336U 14079A   25341.28831989  .00000306  00000+0  12084-3 0  9996",
        "tle_line2": "2 40336  98.3318  39.4916 0001522 120.5397 239.5940 14.35514708576423"
      },
      "geometry": {
        "type": "Point",
        "coordinates": [
          -139.8616352855615,
          -1.3297674970715534
        ]
      }
    }
  ]
}